ONEWEB-0524             
1 54142U 22138AF  26109.00488131 -.00000024  00000+0 -90331-4 0  9992
2 54142  87.9140 286.2498 0001221  64.5839 295.5421 13.20774029171492
ONEWEB-0525             
1 54143U 22138AG  26109.10014233  .00000022  00000+0  22377-4 0  9993
2 54143  87.9161 316.7459 0002018  83.5030 276.6333 13.19723754169037
ONEWEB-0526             
1 54144U 22138AH  26109.28495572  .00000024  00000+0  27557-4 0  9999
2 54144  87.9173 316.7080 0001812  83.9272 276.2067 13.19724522169038
ONEWEB-0529             
1 54145U 22138AJ  26109.06065842  .00000110  00000+0  24153-3 0  9993
2 54145  87.9160 316.7657 0001991  82.5229 277.6130 13.19724228169028
ONEWEB-0531             
1 54146U 22138AK  26109.21794870  .00000013  00000+0 -62023-6 0  9995
2 54146  87.9136 286.2058 0000845  94.2581 265.8649 13.20772952171527
ONEWEB-0535             
1 54147U 22138AL  26109.09382348  .00000035  00000+0  56197-4 0  9991
2 54147  87.9169 316.7395 0001498  94.4082 265.7222 13.19724061169046
ONEWEB-0536             
1 54148U 22138AM  26109.20532567  .00000048  00000+0  85569-4 0  9994
2 54148  87.9121 286.2373 0000773  84.0221 276.1000 13.20773540171510
ONEWEB-0527             
1 54642U 22166A   26109.12754588  .00000122  00000+0  26500-3 0  9996
2 54642  87.9196 255.7572 0001760  97.6862 262.4472 13.21825080163735
ONEWEB-0528             
1 54643U 22166B   26109.13341306 -.00000020  00000+0 -79707-4 0  9995
2 54643  87.9200 255.7598 0001997  93.1313 267.0050 13.21823639163746
ONEWEB-0539             
1 54644U 22166C   26109.09643896 -.00000022  00000+0 -84861-4 0  9999
2 54644  87.9209 255.7355 0002011 104.3439 255.7918 13.21826319163733
ONEWEB-0540             
1 54645U 22166D   26109.10330356  .00000016  00000+0  78283-5 0  9999
2 54645  87.9206 255.7680 0001848 101.2691 258.8651 13.21826376163725
ONEWEB-0542             
1 54646U 22166E   26109.10652986  .00000015  00000+0  40384-5 0  9996
2 54646  87.9211 255.7310 0002015 107.1490 252.9865 13.21826649163737
ONEWEB-0545             
1 54647U 22166F   26109.14687967 -.00000033  00000+0 -11176-3 0  9995
2 54647  87.9199 255.7394 0002068 113.7034 246.4317 13.21823481163708
ONEWEB-0580             
1 54648U 22166G   26109.12164367 -.00000722  00000+0 -17803-2 0  9995
2 54648  87.9196 255.7447 0002075 110.7703 249.3653 13.21847267163740
ONEWEB-0582             
1 54649U 22166H   26109.16372855 -.00002243  00000+0 -54654-2 0  9998
2 54649  87.9239 255.7278 0003368 104.1537 255.9972 13.21808352163726
ONEWEB-0583             
1 54650U 22166J   26109.09980191  .00000028  00000+0  36627-4 0  9999
2 54650  87.9202 255.7648 0001877 103.4785 256.6558 13.21827388163727
