[{"OBJECT_NAME":"ONEWEB-0524","OBJECT_ID":"2022-138AF","EPOCH":"2026-04-19T00:07:01.745184","MEAN_MOTION":13.20774029,"ECCENTRICITY":0.0001221,"INCLINATION":87.914,"RA_OF_ASC_NODE":286.2498,"ARG_OF_PERICENTER":64.5839,"MEAN_ANOMALY":295.5421,"EPHEMERIS_TYPE":0,"CLASSIFICATION_TYPE":"U","NORAD_CAT_ID":54142,"ELEMENT_SET_NO":999,"REV_AT_EPOCH":17149,"BSTAR":-9.0331e-05,"MEAN_MOTION_DOT":-2.4e-07,"MEAN_MOTION_DDOT":0.0},{"OBJECT_NAME":"ONEWEB-0525","OBJECT_ID":"2022-138AG","EPOCH":"2026-04-19T02:24:12.297312","MEAN_MOTION":13.19723754,"ECCENTRICITY":0.0002018,"INCLINATION":87.9161,"RA_OF_ASC_NODE":316.7459,"ARG_OF_PERICENTER":83.503,"MEAN_ANOMALY":276.6333,"EPHEMERIS_TYPE":0,"CLASSIFICATION_TYPE":"U","NORAD_CAT_ID":54143,"ELEMENT_SET_NO":999,"REV_AT_EPOCH":16903,"BSTAR":2.2377e-05,"MEAN_MOTION_DOT":2.2e-07,"MEAN_MOTION_DDOT":0.0},{"OBJECT_NAME":"ONEWEB-0526","OBJECT_ID":"2022-138AH","EPOCH":"2026-04-19T06:50:20.174208","MEAN_MOTION":13.19724522,"ECCENTRICITY":0.0001812,"INCLINATION":87.9173,"RA_OF_ASC_NODE":316.708,"ARG_OF_PERICENTER":83.9272,"MEAN_ANOMALY":276.2067,"EPHEMERIS_TYPE":0,"CLASSIFICATION_TYPE":"U","NORAD_CAT_ID":54144,"ELEMENT_SET_NO":999,"REV_AT_EPOCH":16903,"BSTAR":2.7557e-05,"MEAN_MOTION_DOT":2.4e-07,"MEAN_MOTION_DDOT":0.0},{"OBJECT_NAME":"ONEWEB-0529","OBJECT_ID":"2022-138AJ","EPOCH":"2026-04-19T01:27:20.887488","MEAN_MOTION":13.19724228,"ECCENTRICITY":0.0001991,"INCLINATION":87.916,"RA_OF_ASC_NODE":316.7657,"ARG_OF_PERICENTER":82.5229,"MEAN_ANOMALY":277.613,"EPHEMERIS_TYPE":0,"CLASSIFICATION_TYPE":"U","NORAD_CAT_ID":54145,"ELEMENT_SET_NO":999,"REV_AT_EPOCH":16902,"BSTAR":0.00024153,"MEAN_MOTION_DOT":1.1e-06,"MEAN_MOTION_DDOT":0.0},{"OBJECT_NAME":"ONEWEB-0531","OBJECT_ID":"2022-138AK","EPOCH":"2026-04-19T05:13:50.767680","MEAN_MOTION":13.20772952,"ECCENTRICITY":8.45e-05,"INCLINATION":87.9136,"RA_OF_ASC_NODE":286.2058,"ARG_OF_PERICENTER":94.2581,"MEAN_ANOMALY":265.8649,"EPHEMERIS_TYPE":0,"CLASSIFICATION_TYPE":"U","NORAD_CAT_ID":54146,"ELEMENT_SET_NO":999,"REV_AT_EPOCH":17152,"BSTAR":-6.202299999999999e-07,"MEAN_MOTION_DOT":1.3e-07,"MEAN_MOTION_DDOT":0.0},{"OBJECT_NAME":"ONEWEB-0535","OBJECT_ID":"2022-138AL","EPOCH":"2026-04-19T02:15:06.348672","MEAN_MOTION":13.19724061,"ECCENTRICITY":0.0001498,"INCLINATION":87.9169,"RA_OF_ASC_NODE":316.7395,"ARG_OF_PERICENTER":94.4082,"MEAN_ANOMALY":265.7222,"EPHEMERIS_TYPE":0,"CLASSIFICATION_TYPE":"U","NORAD_CAT_ID":54147,"ELEMENT_SET_NO":999,"REV_AT_EPOCH":16904,"BSTAR":5.6197e-05,"MEAN_MOTION_DOT":3.5e-07,"MEAN_MOTION_DDOT":0.0},{"OBJECT_NAME":"ONEWEB-0536","OBJECT_ID":"2022-138AM","EPOCH":"2026-04-19T04:55:40.137888","MEAN_MOTION":13.2077354,"ECCENTRICITY":7.73e-05,"INCLINATION":87.9121,"RA_OF_ASC_NODE":286.2373,"ARG_OF_PERICENTER":84.0221,"MEAN_ANOMALY":276.1,"EPHEMERIS_TYPE":0,"CLASSIFICATION_TYPE":"U","NORAD_CAT_ID":54148,"ELEMENT_SET_NO":999,"REV_AT_EPOCH":17151,"BSTAR":8.5569e-05,"MEAN_MOTION_DOT":4.8e-07,"MEAN_MOTION_DDOT":0.0},{"OBJECT_NAME":"ONEWEB-0527","OBJECT_ID":"2022-166A","EPOCH":"2026-04-19T03:03:39.964032","MEAN_MOTION":13.2182508,"ECCENTRICITY":0.000176,"INCLINATION":87.9196,"RA_OF_ASC_NODE":255.7572,"ARG_OF_PERICENTER":97.6862,"MEAN_ANOMALY":262.4472,"EPHEMERIS_TYPE":0,"CLASSIFICATION_TYPE":"U","NORAD_CAT_ID":54642,"ELEMENT_SET_NO":999,"REV_AT_EPOCH":16373,"BSTAR":0.00026500000000000004,"MEAN_MOTION_DOT":1.22e-06,"MEAN_MOTION_DDOT":0.0},{"OBJECT_NAME":"ONEWEB-0528","OBJECT_ID":"2022-166B","EPOCH":"2026-04-19T03:12:06.888384","MEAN_MOTION":13.21823639,"ECCENTRICITY":0.0001997,"INCLINATION":87.92,"RA_OF_ASC_NODE":255.7598,"ARG_OF_PERICENTER":93.1313,"MEAN_ANOMALY":267.005,"EPHEMERIS_TYPE":0,"CLASSIFICATION_TYPE":"U","NORAD_CAT_ID":54643,"ELEMENT_SET_NO":999,"REV_AT_EPOCH":16374,"BSTAR":-7.9707e-05,"MEAN_MOTION_DOT":-2e-07,"MEAN_MOTION_DDOT":0.0},{"OBJECT_NAME":"ONEWEB-0539","OBJECT_ID":"2022-166C","EPOCH":"2026-04-19T02:18:52.326144","MEAN_MOTION":13.21826319,"ECCENTRICITY":0.0002011,"INCLINATION":87.9209,"RA_OF_ASC_NODE":255.7355,"ARG_OF_PERICENTER":104.3439,"MEAN_ANOMALY":255.7918,"EPHEMERIS_TYPE":0,"CLASSIFICATION_TYPE":"U","NORAD_CAT_ID":54644,"ELEMENT_SET_NO":999,"REV_AT_EPOCH":16373,"BSTAR":-8.4861e-05,"MEAN_MOTION_DOT":-2.2e-07,"MEAN_MOTION_DDOT":0.0},{"OBJECT_NAME":"ONEWEB-0540","OBJECT_ID":"2022-166D","EPOCH":"2026-04-19T02:28:45.427584","MEAN_MOTION":13.21826376,"ECCENTRICITY":0.0001848,"INCLINATION":87.9206,"RA_OF_ASC_NODE":255.768,"ARG_OF_PERICENTER":101.2691,"MEAN_ANOMALY":258.8651,"EPHEMERIS_TYPE":0,"CLASSIFICATION_TYPE":"U","NORAD_CAT_ID":54645,"ELEMENT_SET_NO":999,"REV_AT_EPOCH":16372,"BSTAR":7.828300000000001e-06,"MEAN_MOTION_DOT":1.6e-07,"MEAN_MOTION_DDOT":0.0},{"OBJECT_NAME":"ONEWEB-0542","OBJECT_ID":"2022-166E","EPOCH":"2026-04-19T02:33:24.179904","MEAN_MOTION":13.21826649,"ECCENTRICITY":0.0002015,"INCLINATION":87.9211,"RA_OF_ASC_NODE":255.731,"ARG_OF_PERICENTER":107.149,"MEAN_ANOMALY":252.9865,"EPHEMERIS_TYPE":0,"CLASSIFICATION_TYPE":"U","NORAD_CAT_ID":54646,"ELEMENT_SET_NO":999,"REV_AT_EPOCH":16373,"BSTAR":4.0384e-06,"MEAN_MOTION_DOT":1.5e-07,"MEAN_MOTION_DDOT":0.0},{"OBJECT_NAME":"ONEWEB-0545","OBJECT_ID":"2022-166F","EPOCH":"2026-04-19T03:31:30.403488","MEAN_MOTION":13.21823481,"ECCENTRICITY":0.0002068,"INCLINATION":87.9199,"RA_OF_ASC_NODE":255.7394,"ARG_OF_PERICENTER":113.7034,"MEAN_ANOMALY":246.4317,"EPHEMERIS_TYPE":0,"CLASSIFICATION_TYPE":"U","NORAD_CAT_ID":54647,"ELEMENT_SET_NO":999,"REV_AT_EPOCH":16370,"BSTAR":-0.00011176,"MEAN_MOTION_DOT":-3.3e-07,"MEAN_MOTION_DDOT":0.0},{"OBJECT_NAME":"ONEWEB-0580","OBJECT_ID":"2022-166G","EPOCH":"2026-04-19T02:55:10.013088","MEAN_MOTION":13.21847267,"ECCENTRICITY":0.0002075,"INCLINATION":87.9196,"RA_OF_ASC_NODE":255.7447,"ARG_OF_PERICENTER":110.7703,"MEAN_ANOMALY":249.3653,"EPHEMERIS_TYPE":0,"CLASSIFICATION_TYPE":"U","NORAD_CAT_ID":54648,"ELEMENT_SET_NO":999,"REV_AT_EPOCH":16374,"BSTAR":-0.0017803,"MEAN_MOTION_DOT":-7.22e-06,"MEAN_MOTION_DDOT":0.0},{"OBJECT_NAME":"ONEWEB-0582","OBJECT_ID":"2022-166H","EPOCH":"2026-04-19T03:55:46.146720","MEAN_MOTION":13.21808352,"ECCENTRICITY":0.0003368,"INCLINATION":87.9239,"RA_OF_ASC_NODE":255.7278,"ARG_OF_PERICENTER":104.1537,"MEAN_ANOMALY":255.9972,"EPHEMERIS_TYPE":0,"CLASSIFICATION_TYPE":"U","NORAD_CAT_ID":54649,"ELEMENT_SET_NO":999,"REV_AT_EPOCH":16372,"BSTAR":-0.0054654000000000005,"MEAN_MOTION_DOT":-2.243e-05,"MEAN_MOTION_DDOT":0.0},{"OBJECT_NAME":"ONEWEB-0583","OBJECT_ID":"2022-166J","EPOCH":"2026-04-19T02:23:42.885024","MEAN_MOTION":13.21827388,"ECCENTRICITY":0.0001877,"INCLINATION":87.9202,"RA_OF_ASC_NODE":255.7648,"ARG_OF_PERICENTER":103.4785,"MEAN_ANOMALY":256.6558,"EPHEMERIS_TYPE":0,"CLASSIFICATION_TYPE":"U","NORAD_CAT_ID":54650,"ELEMENT_SET_NO":999,"REV_AT_EPOCH":16372,"BSTAR":3.6627e-05,"MEAN_MOTION_DOT":2.8e-07,"MEAN_MOTION_DDOT":0.0}]